NORAD_CAT_ID,OBJECT_NAME,OBJECT_TYPE,EPOCH,MEAN_MOTION,ECCENTRICITY,INCLINATION,RA_OF_ASC_NODE,ARG_OF_PERICENTER,MEAN_ANOMALY,BSTAR,MEAN_MOTION_DOT,MEAN_MOTION_DDOT,TLE_LINE0,TLE_LINE1,TLE_LINE2,SEMIMAJOR_AXIS,PERIOD,APOGEE,PERIGEE,DECAYED
52858.0,STARLINK-4198,PAYLOAD,2022-09-24 14:00:01,15.08830263,0.0001869,53.2137,289.9336,37.8223,137.6699,0.0017180999999999,0.00027154,0.0,0 STARLINK-4198,1 52858U 22062AE  22267.58335648  .00027154  00000-0  17181-2 0  9990,2 52858  53.2137 289.9336 0001869  37.8223 137.6699 15.08830263 15889,6917.91,95.438,541.068,538.482,0.0
52858.0,STARLINK-4198,PAYLOAD,2022-09-24 22:00:00,15.08825583,0.000168,53.2139,288.4354,43.4427,143.5892,0.0026923,0.00042804,0.0,0 STARLINK-4198,1 52858U 22062AE  22267.91667824  .00042804  00000-0  26923-2 0  9994,2 52858  53.2139 288.4354 0001680  43.4427 143.5892 15.08825583  1307,6917.924,95.438,540.952,538.627,0.0
52858.0,STARLINK-4198,PAYLOAD,2022-09-25 06:00:00,15.08867631,0.0001841,53.214,286.94,44.2184,154.41299999999995,-0.0035931999999999,-0.00057065,0.0,0 STARLINK-4198,1 52858U 22062AE  22268.25001157 -.00057065  00000-0 -35932-2 0  9990,2 52858  53.2140 286.9400 0001841  44.2184 154.4130 15.08867631 15987,6917.795999999999,95.436,540.934,538.387,0.0
52858.0,STARLINK-4198,PAYLOAD,2022-09-25 14:00:01,15.08833166,0.0001971,53.2138,285.4437,42.2723,167.9618,0.00099892,0.00015643,0.0,0 STARLINK-4198,1 52858U 22062AE  22268.58334491  .00015643  00000-0  99892-3 0  9996,2 52858  53.2138 285.4437 0001971  42.2723 167.9618 15.08833166  1306,6917.901,95.438,541.13,538.403,0.0
52858.0,STARLINK-4198,PAYLOAD,2022-09-25 22:00:01,15.08832363,0.0001797,53.2139,283.9453,48.9771,172.9122,-0.0001027,-1.922e-05,0.0,0 STARLINK-4198,1 52858U 22062AE  22268.91668981 -.00001922  00000-0 -10270-3 0  9997,2 52858  53.2139 283.9453 0001797  48.9771 172.9122 15.08832363 16085,6917.904,95.438,541.012,538.526,0.0
52858.0,STARLINK-4198,PAYLOAD,2022-09-26 00:00:00,15.08836272,0.00018,53.2142,283.5708,50.7361,263.986,-0.00073069,-0.00011897,0.0,0 STARLINK-4198,1 52858U 22062AE  22269.00001157 -.00011897  00000-0 -73069-3 0  9991,2 52858  53.2142 283.5708 0001800  50.7361 263.9860 15.08836272  1301,6917.892,95.438,541.002,538.512,0.0
52858.0,STARLINK-4198,PAYLOAD,2022-09-26 14:00:01,15.08823509,0.0002045999999999,53.2132,280.9542,46.5039,198.4761,5.0795e-05,5.2e-06,0.0,0 STARLINK-4198,1 52858U 22062AE  22269.58334491  .00000520  00000-0  50795-4 0  9995,2 52858  53.2132 280.9542 0002046  46.5039 198.4761 15.08823509  1306,6917.931,95.439,541.211,538.38,0.0
52858.0,STARLINK-4198,PAYLOAD,2022-09-27 00:00:00,15.08816148,0.0001905,53.2134,279.0819,54.0507,295.4017,0.0022555,0.00035768,0.0,0 STARLINK-4198,1 52858U 22062AE  22270.00001157  .00035768  00000-0  22555-2 0  9997,2 52858  53.2134 279.0819 0001905  54.0507 295.4017 15.08816148  1304,6917.953,95.439,541.136,538.5,0.0
52858.0,STARLINK-4198,PAYLOAD,2022-09-27 06:00:00,15.08839203,0.0002031,53.2132,277.961,50.6488,217.4875,-0.0010613,-0.00017139,0.0,0 STARLINK-4198,1 52858U 22062AE  22270.25001157 -.00017139  00000-0 -10613-2 0  9990,2 52858  53.2132 277.9610 0002031  50.6488 217.4875 15.08839203 16285,6917.8830000000025,95.438,541.153,538.3430000000002,0.0
52858.0,STARLINK-4198,PAYLOAD,2022-09-27 14:00:01,15.08847387,0.0002064,53.2129,276.4645,48.4334,231.2899,-0.00033865,-5.675e-05,0.0,0 STARLINK-4198,1 52858U 22062AE  22270.58334491 -.00005675  00000-0 -33865-3 0  9993,2 52858  53.2129 276.4645 0002064  48.4334 231.2899 15.08847387  1303,6917.858,95.437,541.151,538.295,0.0
52858.0,STARLINK-4198,PAYLOAD,2022-09-27 22:00:01,15.08824906,0.0001954,53.2129,274.9663,54.9389,236.4562,0.0032457999999999,0.00051727,0.0,0 STARLINK-4198,1 52858U 22062AE  22270.91668981  .00051727  00000-0  32458-2 0  9997,2 52858  53.2129 274.9663 0001954  54.9389 236.4562 15.08824906  1301,6917.927,95.439,541.143,538.44,0.0
52858.0,STARLINK-4198,PAYLOAD,2022-09-28 14:00:01,15.08880515,0.0002041,53.2128,271.9746,48.3325,266.2193,-0.0036076,-0.00057312,0.0,0 STARLINK-4198,1 52858U 22062AE  22271.58334491 -.00057312  00000-0 -36076-2 0  9995,2 52858  53.2128 271.9746 0002041  48.3325 266.2193 15.08880515  1303,6917.757,95.435,541.033,538.21,0.0
52858.0,STARLINK-4198,PAYLOAD,2022-09-28 22:00:00,15.08820887,0.000192,53.213,270.4765,54.2157,271.9368,0.0033174,0.00052878,0.0,0 STARLINK-4198,1 52858U 22062AE  22271.91667824  .00052878  00000-0  33174-2 0  9997,2 52858  53.2130 270.4765 0001920  54.2157 271.9368 15.08820887  1308,6917.939,95.439,541.132,538.476,0.0
52858.0,STARLINK-4198,PAYLOAD,2022-09-29 06:00:00,15.08869121,0.0002056999999999,53.2131,268.9816,50.1157,287.6308,-0.0031801,-0.00050586,0.0,0 STARLINK-4198,1 52858U 22062AE  22272.25001157 -.00050586  00000-0 -31801-2 0  9997,2 52858  53.2131 268.9816 0002057  50.1157 287.6308 15.08869121 16583,6917.791,95.436,541.0790000000002,538.2330000000002,0.0
52858.0,STARLINK-4198,PAYLOAD,2022-09-29 14:00:01,15.08842904,0.0002015,53.2132,267.4848,46.6262,302.7226,-0.0011519,-0.00018576,0.0,0 STARLINK-4198,1 52858U 22062AE  22272.58334491 -.00018576  00000-0 -11519-2 0  9990,2 52858  53.2132 267.4848 0002015  46.6262 302.7226 15.08842904  1306,6917.871999999999,95.437,541.13,538.3430000000002,0.0
52858.0,STARLINK-4198,PAYLOAD,2022-09-29 22:00:00,15.08826119,0.0001875,53.2137,265.9866,52.7799,308.1612,0.0013347,0.0002101,0.0,0 STARLINK-4198,1 52858U 22062AE  22272.91667824  .00021010  00000-0  13347-2 0  9992,2 52858  53.2137 265.9866 0001875  52.7799 308.1612 15.08826119  1310,6917.9230000000025,95.438,541.085,538.491,0.0
52858.0,STARLINK-4198,PAYLOAD,2022-09-30 14:00:01,15.08843668,0.0002000999999999,53.2137,262.9952,46.0464,338.0646,-0.0010819,-0.00017467,0.0,0 STARLINK-4198,1 52858U 22062AE  22273.58334491 -.00017467  00000-0 -10819-2 0  9991,2 52858  53.2137 262.9952 0002001  46.0464 338.0646 15.08843668  1306,6917.869000000002,95.437,541.118,538.35,0.0
52858.0,STARLINK-4198,PAYLOAD,2022-09-30 16:00:00,15.08843761,0.0001945,53.2139,262.6206,48.2644,68.7442,-0.0010404,-0.0001681,0.0,0 STARLINK-4198,1 52858U 22062AE  22273.66667824 -.00016810  00000-0 -10404-2 0  9990,2 52858  53.2139 262.6206 0001945  48.2644  68.7442 15.08843761 16803,6917.869000000002,95.437,541.0790000000002,538.388,0.0
52858.0,STARLINK-4198,PAYLOAD,2022-09-30 22:00:00,15.08829863,0.0001878,53.214,261.4974,52.1457,343.5623,0.0024754,0.00039317,0.0,0 STARLINK-4198,1 52858U 22062AE  22273.91667824  .00039317  00000-0  24754-2 0  9996,2 52858  53.2140 261.4974 0001878  52.1457 343.5623 15.08829863  1306,6917.911,95.438,541.076,538.477,0.0
52858.0,STARLINK-4198,PAYLOAD,2022-10-01 06:00:00,15.08844905,0.000202,53.2141,260.0027,47.7546,359.5555,-0.0016302,-0.00026143,0.0,0 STARLINK-4198,1 52858U 22062AE  22274.25001157 -.00026143  00000-0 -16302-2 0  9990,2 52858  53.2141 260.0027 0002020  47.7546 359.5555 15.08844905 16884,6917.865,95.437,541.128,538.3330000000002,0.0
52858.0,STARLINK-4198,PAYLOAD,2022-10-01 14:00:01,15.08852322,0.0001952,53.2141,258.5058,45.6121,13.282,-0.0014822,-0.00023808,0.0,0 STARLINK-4198,1 52858U 22062AE  22274.58334491 -.00023808  00000-0 -14822-2 0  9996,2 52858  53.2141 258.5058 0001952  45.6121  13.2820 15.08852322  1301,6917.843000000003,95.437,541.058,538.357,0.0
52858.0,STARLINK-4198,PAYLOAD,2022-10-01 22:00:00,15.08832113,0.0001803,53.2143,257.0082,51.1385,19.3585,0.00022251,3.254e-05,0.0,0 STARLINK-4198,1 52858U 22062AE  22274.91667824  .00003254  00000-0  22251-3 0  9999,2 52858  53.2143 257.0082 0001803  51.1385  19.3585 15.08832113  1304,6917.904,95.438,541.0169999999998,538.5219999999998,0.0
52858.0,STARLINK-4198,PAYLOAD,2022-10-02 14:00:01,15.08866725,0.0001851,53.2141,254.0166,44.9575,48.7072,-0.0039567,-0.00062758,0.0,0 STARLINK-4198,1 52858U 22062AE  22275.58334491 -.00062758  00000-0 -39567-2 0  9997,2 52858  53.2141 254.0166 0001851  44.9575  48.7072 15.08866725  1309,6917.799,95.436,540.944,538.383,0.0
52858.0,STARLINK-4198,PAYLOAD,2022-10-02 22:00:00,15.088174300000002,0.0001678,53.2143,252.5191,50.3876,54.8823,0.0025846,0.00041061,0.0,0 STARLINK-4198,1 52858U 22062AE  22275.91667824  .00041061  00000-0  25846-2 0  9990,2 52858  53.2143 252.5191 0001678  50.3876  54.8823 15.08817430  1305,6917.949000000001,95.439,540.975,538.654,0.0
52858.0,STARLINK-4198,PAYLOAD,2022-10-03 06:00:00,15.08839971,0.0001857,53.2141,251.0245,46.2633,70.5941,0.00071197,0.00011061,0.0,0 STARLINK-4198,1 52858U 22062AE  22276.25001157  .00011061  00000-0  71197-3 0  9997,2 52858  53.2141 251.0245 0001857  46.2633  70.5941 15.08839971 17195,6917.88,95.438,541.03,538.461,0.0
52858.0,STARLINK-4198,PAYLOAD,2022-10-03 14:00:01,15.08877301,0.0001815,53.2138,249.5273,48.1411,80.3157,-0.0038824,-0.00061612,0.0,0 STARLINK-4198,1 52858U 22062AE  22276.58334491 -.00061612  00000-0 -38824-2 0  9991,2 52858  53.2138 249.5273 0001815  48.1411  80.3157 15.08877301  1306,6917.766,95.435,540.887,538.376,0.0
52858.0,STARLINK-4198,PAYLOAD,2022-10-03 22:00:00,15.08849761,0.0001733,53.2139,248.03,55.3868,84.6781,0.00015914,2.246e-05,0.0,0 STARLINK-4198,1 52858U 22062AE  22276.91667824  .00002246  00000-0  15914-3 0  9999,2 52858  53.2139 248.0300 0001733  55.3868  84.6781 15.08849761  1306,6917.851,95.437,540.914,538.5169999999998,0.0
52858.0,STARLINK-4198,PAYLOAD,2022-10-04 06:00:00,15.08835341,0.0001802,53.2136,246.5354,48.1316,103.5494,0.00036379,5.506e-05,0.0,0 STARLINK-4198,1 52858U 22062AE  22277.25001157  .00005506  00000-0  36379-3 0  9998,2 52858  53.2136 246.5354 0001802  48.1316 103.5494 15.08835341 17342,6917.895,95.438,541.006,538.513,0.0
52858.0,STARLINK-4198,PAYLOAD,2022-10-04 14:00:01,15.08859477,0.0001608,53.2132,245.0379,47.2363,116.0353,-0.0048188,-0.00076209,0.0,0 STARLINK-4198,1 52858U 22062AE  22277.58334491 -.00076209  00000-0 -48188-2 0  9994,2 52858  53.2132 245.0379 0001608  47.2363 116.0353 15.08859477  1303,6917.821,95.436,540.798,538.573,0.0
